{
  "type": "FeatureCollection",
  "features": [
    {
      "type": "Feature",
      "properties": {
        "norad_id": 32195,
        "name": "FENGYUN 1C DEB",
        "group": "fengyun-1c-debris",
        "lat": -50.76588286731569,
        "lon": 150.62583078688058,
        "alt_km": 872.1872634202618,
        "timestamp": "2025-12-04T21:36:16.158713+00:00",
        "meta_object_name": "FENGYUN 1C DEB",
        "meta_object_id": "1999-025CUR",
        "meta_epoch": "2025-12-04T06:51:46.585440",
        "meta_mean_motion": 14.08440247,
        "meta_eccentricity": 0.00688908,
        "meta_inclination": 98.773,
        "meta_ra_of_asc_node": 340.9294,
        "meta_arg_of_pericenter": 324.3516,
        "meta_mean_anomaly": 35.3064,
        "meta_ephemeris_type": 0,
        "meta_classification_type": "U",
        "meta_norad_cat_id": 32195,
        "meta_element_set_no": 999,
        "meta_rev_at_epoch": 63863,
        "meta_bstar": 0.0010038746,
        "meta_mean_motion_dot": 1.715e-05,
        "meta_mean_motion_ddot": 0,
        "tle_line1": "1 32195U 99025CUR 25338.28595585  .00001715  00000+0  10039-2 0  9991",
        "tle_line2": "2 32195  98.7730 340.9294 0068890 324.3516  35.3064 14.08440247638633"
      },
      "geometry": {
        "type": "Point",
        "coordinates": [
          150.62583078688058,
          -50.76588286731569
        ]
      }
    },
    {
      "type": "Feature",
      "properties": {
        "norad_id": 32197,
        "name": "FENGYUN 1C DEB",
        "group": "fengyun-1c-debris",
        "lat": 32.034422895581706,
        "lon": -117.86219713100174,
        "alt_km": 868.14161280404,
        "timestamp": "2025-12-04T21:36:16.158723+00:00",
        "meta_object_name": "FENGYUN 1C DEB",
        "meta_object_id": "1999-025CUT",
        "meta_epoch": "2025-12-04T12:15:54.172224",
        "meta_mean_motion": 14.32633577,
        "meta_eccentricity": 0.01612193,
        "meta_inclination": 98.9014,
        "meta_ra_of_asc_node": 247.3657,
        "meta_arg_of_pericenter": 254.1251,
        "meta_mean_anomaly": 291.3699,
        "meta_ephemeris_type": 0,
        "meta_classification_type": "U",
        "meta_norad_cat_id": 32197,
        "meta_element_set_no": 999,
        "meta_rev_at_epoch": 94305,
        "meta_bstar": 0.0010347234,
        "meta_mean_motion_dot": 3.196e-05,
        "meta_mean_motion_ddot": 0,
        "tle_line1": "1 32197U 99025CUT 25338.51104366  .00003196  00000+0  10347-2 0  9999",
        "tle_line2": "2 32197  98.9014 247.3657 0161219 254.1251 291.3699 14.32633577943050"
      },
      "geometry": {
        "type": "Point",
        "coordinates": [
          -117.86219713100174,
          32.034422895581706
        ]
      }
    },
    {
      "type": "Feature",
      "properties": {
        "norad_id": 32198,
        "name": "FENGYUN 1C DEB",
        "group": "fengyun-1c-debris",
        "lat": -11.128051406469174,
        "lon": 128.0177649068728,
        "alt_km": 810.6009623317186,
        "timestamp": "2025-12-04T21:36:16.158733+00:00",
        "meta_object_name": "FENGYUN 1C DEB",
        "meta_object_id": "1999-025CUU",
        "meta_epoch": "2025-11-26T15:55:14.672064",
        "meta_mean_motion": 14.08693486,
        "meta_eccentricity": 0.00946342,
        "meta_inclination": 98.344,
        "meta_ra_of_asc_node": 118.7379,
        "meta_arg_of_pericenter": 338.8779,
        "meta_mean_anomaly": 20.8495,
        "meta_ephemeris_type": 0,
        "meta_classification_type": "U",
        "meta_norad_cat_id": 32198,
        "meta_element_set_no": 999,
        "meta_rev_at_epoch": 56719,
        "meta_bstar": 0.0016262032,
        "meta_mean_motion_dot": 2.879e-05,
        "meta_mean_motion_ddot": 0,
        "tle_line1": "1 32198U 99025CUU 25330.66336426  .00002879  00000+0  16262-2 0  9991",
        "tle_line2": "2 32198  98.3440 118.7379 0094634 338.8779  20.8495 14.08693486567195"
      },
      "geometry": {
        "type": "Point",
        "coordinates": [
          128.0177649068728,
          -11.128051406469174
        ]
      }
    },
    {
      "type": "Feature",
      "properties": {
        "norad_id": 32200,
        "name": "FENGYUN 1C DEB",
        "group": "fengyun-1c-debris",
        "lat": 65.26694408675394,
        "lon": 8.348647797893815,
        "alt_km": 845.1153193763548,
        "timestamp": "2025-12-04T21:36:16.158743+00:00",
        "meta_object_name": "FENGYUN 1C DEB",
        "meta_object_id": "1999-025CUW",
        "meta_epoch": "2025-12-04T14:30:19.458432",
        "meta_mean_motion": 14.15649918,
        "meta_eccentricity": 0.00392627,
        "meta_inclination": 98.7917,
        "meta_ra_of_asc_node": 27.6877,
        "meta_arg_of_pericenter": 313.708,
        "meta_mean_anomaly": 46.0844,
        "meta_ephemeris_type": 0,
        "meta_classification_type": "U",
        "meta_norad_cat_id": 32200,
        "meta_element_set_no": 999,
        "meta_rev_at_epoch": 94248,
        "meta_bstar": 0.0018597642,
        "meta_mean_motion_dot": 3.628e-05,
        "meta_mean_motion_ddot": 0,
        "tle_line1": "1 32200U 99025CUW 25338.60439188  .00003628  00000+0  18598-2 0  9993",
        "tle_line2": "2 32200  98.7917  27.6877 0039262 313.7080  46.0844 14.15649918942482"
      },
      "geometry": {
        "type": "Point",
        "coordinates": [
          8.348647797893815,
          65.26694408675394
        ]
      }
    },
    {
      "type": "Feature",
      "properties": {
        "norad_id": 32203,
        "name": "FENGYUN 1C DEB",
        "group": "fengyun-1c-debris",
        "lat": -50.87822093140931,
        "lon": -120.5916075067192,
        "alt_km": 552.6040397783754,
        "timestamp": "2025-12-04T21:36:16.158753+00:00",
        "meta_object_name": "FENGYUN 1C DEB",
        "meta_object_id": "1999-025CUZ",
        "meta_epoch": "2025-12-03T03:43:09.125472",
        "meta_mean_motion": 15.39646762,
        "meta_eccentricity": 0.01471116,
        "meta_inclination": 97.0173,
        "meta_ra_of_asc_node": 229.0233,
        "meta_arg_of_pericenter": 126.0108,
        "meta_mean_anomaly": 235.488,
        "meta_ephemeris_type": 0,
        "meta_classification_type": "U",
        "meta_norad_cat_id": 32203,
        "meta_element_set_no": 999,
        "meta_rev_at_epoch": 74950,
        "meta_bstar": 0.00079053984,
        "meta_mean_motion_dot": 0.00045869,
        "meta_mean_motion_ddot": 0,
        "tle_line1": "1 32203U 99025CUZ 25337.15496673  .00045869  00000+0  79054-3 0  9995",
        "tle_line2": "2 32203  97.0173 229.0233 0147111 126.0108 235.4880 15.39646762749507"
      },
      "geometry": {
        "type": "Point",
        "coordinates": [
          -120.5916075067192,
          -50.87822093140931
        ]
      }
    },
    {
      "type": "Feature",
      "properties": {
        "norad_id": 32205,
        "name": "FENGYUN 1C DEB",
        "group": "fengyun-1c-debris",
        "lat": 81.30166901851193,
        "lon": -103.63506419053445,
        "alt_km": 843.6442153931848,
        "timestamp": "2025-12-04T21:36:16.158763+00:00",
        "meta_object_name": "FENGYUN 1C DEB",
        "meta_object_id": "1999-025CVB",
        "meta_epoch": "2025-12-03T18:51:38.525184",
        "meta_mean_motion": 14.13901782,
        "meta_eccentricity": 0.00102944,
        "meta_inclination": 98.6784,
        "meta_ra_of_asc_node": 341.9469,
        "meta_arg_of_pericenter": 319.7737,
        "meta_mean_anomaly": 220.8518,
        "meta_ephemeris_type": 0,
        "meta_classification_type": "U",
        "meta_norad_cat_id": 32205,
        "meta_element_set_no": 999,
        "meta_rev_at_epoch": 94371,
        "meta_bstar": 0.00024481357,
        "meta_mean_motion_dot": 4.22e-06,
        "meta_mean_motion_ddot": 0,
        "tle_line1": "1 32205U 99025CVB 25337.78586256  .00000422  00000+0  24481-3 0  9993",
        "tle_line2": "2 32205  98.6784 341.9469 0010294 319.7737 220.8518 14.13901782943711"
      },
      "geometry": {
        "type": "Point",
        "coordinates": [
          -103.63506419053445,
          81.30166901851193
        ]
      }
    },
    {
      "type": "Feature",
      "properties": {
        "norad_id": 32209,
        "name": "FENGYUN 1C DEB",
        "group": "fengyun-1c-debris",
        "lat": 40.775126426696204,
        "lon": 114.99560569950017,
        "alt_km": 1087.5149303801163,
        "timestamp": "2025-12-04T21:36:16.158774+00:00",
        "meta_object_name": "FENGYUN 1C DEB",
        "meta_object_id": "1999-025CVF",
        "meta_epoch": "2025-12-01T19:52:12.211968",
        "meta_mean_motion": 13.47100658,
        "meta_eccentricity": 0.03328885,
        "meta_inclination": 99.4197,
        "meta_ra_of_asc_node": 283.8685,
        "meta_arg_of_pericenter": 52.3889,
        "meta_mean_anomaly": 310.6974,
        "meta_ephemeris_type": 0,
        "meta_classification_type": "U",
        "meta_norad_cat_id": 32209,
        "meta_element_set_no": 999,
        "meta_rev_at_epoch": 89829,
        "meta_bstar": 0.002968545,
        "meta_mean_motion_dot": 2.491e-05,
        "meta_mean_motion_ddot": 0,
        "tle_line1": "1 32209U 99025CVF 25335.82791912  .00002491  00000+0  29685-2 0  9995",
        "tle_line2": "2 32209  99.4197 283.8685 0332888  52.3889 310.6974 13.47100658898295"
      },
      "geometry": {
        "type": "Point",
        "coordinates": [
          114.99560569950017,
          40.775126426696204
        ]
      }
    }
  ]
}